NORAD_CAT_ID,OBJECT_NAME,OBJECT_TYPE,EPOCH,MEAN_MOTION,ECCENTRICITY,INCLINATION,RA_OF_ASC_NODE,ARG_OF_PERICENTER,MEAN_ANOMALY,BSTAR,MEAN_MOTION_DOT,MEAN_MOTION_DDOT,TLE_LINE0,TLE_LINE1,TLE_LINE2,SEMIMAJOR_AXIS,PERIOD,APOGEE,PERIGEE,DECAYED
52265.0,STARLINK-3740,PAYLOAD,2024-07-24 03:03:17,15.08842548,0.0001824,53.2155,253.7306,95.5687,264.5513,4.2333e-05,3.86e-06,0.0,0 STARLINK-3740,1 52265U 22041E   24206.12728613  .00000386  00000-0  42333-4 0  9999,2 52265  53.2155 253.7306 0001824  95.5687 264.5513 15.08842548125979,6917.873,95.437,540.999,538.476,0.0
52265.0,STARLINK-3740,PAYLOAD,2024-07-24 09:24:50,15.08835073,0.0001654,53.2155,252.539,94.2787,265.8395,-9.8988e-05,-1.863e-05,0.0,0 STARLINK-3740,1 52265U 22041E   24206.39225099 -.00001863  00000-0 -98988-4 0  9998,2 52265  53.2155 252.5390 0001654  94.2787 265.8395 15.08835073126010,6917.895,95.438,540.905,538.616,0.0
52265.0,STARLINK-3740,PAYLOAD,2024-07-25 10:50:59,15.08853552,0.0001637,53.2154,247.7772,123.5244,236.5905,3.0759e-05,2.02e-06,0.0,0 STARLINK-3740,1 52265U 22041E   24207.45207913  .00000202  00000-0  30759-4 0  9997,2 52265  53.2154 247.7772 0001637 123.5244 236.5905 15.08853552126175,6917.839,95.437,540.836,538.572,0.0
52265.0,STARLINK-3740,PAYLOAD,2024-07-26 10:41:47,15.08841292,0.0001549,53.2169,243.3195,95.519,264.5979,0.00013019,1.785e-05,0.0,0 STARLINK-3740,1 52265U 22041E   24208.44568594  .00001785  00000-0  13019-3 0  9998,2 52265  53.2169 243.3195 0001549  95.5190 264.5979 15.08841292126329,6917.876,95.437,540.813,538.67,0.0
52265.0,STARLINK-3740,PAYLOAD,2024-07-27 05:46:24,15.08846678,0.0001548,53.2163,239.7512,94.7319,265.385,7.2788e-05,8.71e-06,0.0,0 STARLINK-3740,1 52265U 22041E   24209.24056172  .00000871  00000-0  72788-4 0  9995,2 52265  53.2163 239.7512 0001548  94.7319 265.3850 15.08846678125226,6917.86,95.437,540.796,538.654,0.0
52265.0,STARLINK-3740,PAYLOAD,2024-07-27 08:57:10,15.08852845,0.0001596,53.2163,239.1562,95.5572,264.5602,0.00012744,1.741e-05,0.0,0 STARLINK-3740,1 52265U 22041E   24209.37303566  .00001741  00000-0  12744-3 0  9993,2 52265  53.2163 239.1562 0001596  95.5572 264.5602 15.08852845126464,6917.841,95.437,540.81,538.602,0.0
52265.0,STARLINK-3740,PAYLOAD,2024-07-27 10:32:33,15.08854267,0.00016,53.2164,238.8587,95.7412,264.3762,0.00013746,1.901e-05,0.0,0 STARLINK-3740,1 52265U 22041E   24209.43927393  .00001901  00000-0  13746-3 0  9991,2 52265  53.2164 238.8587 0001600  95.7412 264.3762 15.08854267125250,6917.837,95.437,540.809,538.595,0.0
52265.0,STARLINK-3740,PAYLOAD,2024-07-28 05:37:12,15.08836711,0.0002153,53.2157,235.2862,130.9018,229.2161,-4.0733e-06,-3.53e-06,0.0,0 STARLINK-3740,1 52265U 22041E   24210.23416695 -.00000353  00000-0 -40733-5 0  9999,2 52265  53.2157 235.2862 0002153 130.9018 229.2161 15.08836711126592,6917.89,95.438,541.245,538.266,0.0
52265.0,STARLINK-3740,PAYLOAD,2024-07-28 08:47:58,15.08833321,0.0001303,53.2155,234.6962,96.7341,263.3799,2.1306e-05,5.1e-07,0.0,0 STARLINK-3740,1 52265U 22041E   24210.36665150  .00000051  00000-0  21306-4 0  9992,2 52265  53.2155 234.6962 0001303  96.7341 263.3799 15.08833321125395,6917.901,95.438,540.667,538.864,0.0
52265.0,STARLINK-3740,PAYLOAD,2024-07-29 08:38:45,15.08845914,0.0001301,53.2152,230.2369,106.8457,253.2678,-6.2228e-05,-1.278e-05,0.0,0 STARLINK-3740,1 52265U 22041E   24211.36024868 -.00001278  00000-0 -62228-4 0  9990,2 52265  53.2152 230.2369 0001301 106.8457 253.2678 15.08845914126761,6917.862,95.437,540.627,538.827,0.0
52265.0,STARLINK-3740,PAYLOAD,2024-07-30 05:18:46,15.08837303,0.0001287,53.2153,226.3709,103.3288,256.7847,0.00017721,2.533e-05,0.0,0 STARLINK-3740,1 52265U 22041E   24212.22137249  .00002533  00000-0  17721-3 0  9994,2 52265  53.2153 226.3709 0001287 103.3288 256.7847 15.08837303126896,6917.889,95.438,540.644,538.863,0.0
52265.0,STARLINK-3740,PAYLOAD,2024-07-30 10:04:55,15.0884057,0.0001303,53.2145,225.4788,101.5311,258.5827,0.00021215,3.09e-05,0.0,0 STARLINK-3740,1 52265U 22041E   24212.42009154  .00003090  00000-0  21215-3 0  9991,2 52265  53.2145 225.4788 0001303 101.5311 258.5827 15.08840570125707,6917.879,95.438,540.645,538.842,0.0
52265.0,STARLINK-3740,PAYLOAD,2024-07-30 18:01:51,15.08843493,0.0001277,53.2143,223.9915,95.7079,264.4059,0.00022356,3.272e-05,0.0,0 STARLINK-3740,1 52265U 22041E   24212.75129107  .00003272  00000-0  22356-3 0  9997,2 52265  53.2143 223.9915 0001277  95.7079 264.4059 15.08843493125750,6917.87,95.437,540.618,538.851,0.0
52265.0,STARLINK-3740,PAYLOAD,2024-07-31 08:20:19,15.08847171,0.0001333,53.2145,221.3159,93.8632,266.2512,0.00020085,2.911e-05,0.0,0 STARLINK-3740,1 52265U 22041E   24213.34744976  .00002911  00000-0  20085-3 0  9996,2 52265  53.2145 221.3159 0001333  93.8632 266.2512 15.08847171127068,6917.858,95.437,540.646,538.801,0.0
52265.0,STARLINK-3740,PAYLOAD,2024-07-31 17:52:38,15.08839248,0.0001279,53.2137,219.5302,94.6241,265.4897,6.0611e-05,6.77e-06,0.0,0 STARLINK-3740,1 52265U 22041E   24213.74489298  .00000677  00000-0  60611-4 0  9990,2 52265  53.2137 219.5302 0001279  94.6241 265.4897 15.08839248127122,6917.883,95.438,540.632,538.863,0.0
52265.0,STARLINK-3740,PAYLOAD,2024-08-01 09:46:30,15.08841046,0.0001342,53.216,216.5558,95.7137,264.4008,4.6475e-05,4.52e-06,0.0,0 STARLINK-3740,1 52265U 22041E   24214.40729472  .00000452  00000-0  46475-4 0  9998,2 52265  53.2160 216.5558 0001342  95.7137 264.4008 15.08841046126003,6917.877,95.437,540.671,538.814,0.0
52265.0,STARLINK-3740,PAYLOAD,2024-08-02 04:51:07,15.08847467,0.000134,53.2162,212.9877,94.7117,265.4028,7.677e-05,9.34e-06,0.0,0 STARLINK-3740,1 52265U 22041E   24215.20216894  .00000934  00000-0  76770-4 0  9992,2 52265  53.2162 212.9877 0001340  94.7117 265.4028 15.08847467127348,6917.858,95.437,540.65,538.796,0.0
52265.0,STARLINK-3740,PAYLOAD,2024-08-02 09:37:16,15.08846314,0.0001392,53.2161,212.0957,94.461,265.6541,0.00013771,1.905e-05,0.0,0 STARLINK-3740,1 52265U 22041E   24215.40088772  .00001905  00000-0  13771-3 0  9996,2 52265  53.2161 212.0957 0001392  94.4610 265.6541 15.08846314126159,6917.861,95.437,540.689,538.763,0.0
52265.0,STARLINK-3740,PAYLOAD,2024-08-03 04:41:54,15.08837836,0.0001374,53.2157,208.5265,95.4407,264.6742,9.7788e-05,1.269e-05,0.0,0 STARLINK-3740,1 52265U 22041E   24216.19577465  .00001269  00000-0  97788-4 0  9999,2 52265  53.2157 208.5265 0001374  95.4407 264.6742 15.08837836127490,6917.887,95.438,540.703,538.801,0.0
52265.0,STARLINK-3740,PAYLOAD,2024-08-03 09:28:04,15.0883948,0.0001405,53.2161,207.6346,96.8144,263.3008,9.2129e-05,1.179e-05,0.0,0 STARLINK-3740,1 52265U 22041E   24216.39449393  .00001179  00000-0  92129-4 0  9993,2 52265  53.2161 207.6346 0001405  96.8144 263.3008 15.08839480126300,6917.882,95.438,540.719,538.775,0.0
52265.0,STARLINK-3740,PAYLOAD,2024-08-04 09:18:51,15.08840031,0.0001312,53.2154,203.1761,91.4179,268.6964,2.1252e-06,-2.54e-06,0.0,0 STARLINK-3740,1 52265U 22041E   24217.38809731 -.00000254  00000-0  21252-5 0  9993,2 52265  53.2154 203.1761 0001312  91.4179 268.6964 15.08840031127674,6917.88,95.438,540.653,538.838,0.0
52265.0,STARLINK-3740,PAYLOAD,2024-08-04 15:40:24,15.08840192,0.0001285,53.2154,201.9867,91.6309,268.4831,3.2231e-05,2.25e-06,0.0,0 STARLINK-3740,1 52265U 22041E   24217.65305663  .00000225  00000-0  32231-4 0  9993,2 52265  53.2154 201.9867 0001285  91.6309 268.4831 15.08840192126491,6917.88,95.438,540.634,538.856,0.0
52265.0,STARLINK-3740,PAYLOAD,2024-08-05 05:58:51,15.08854538,0.0001278,53.2155,199.3096,88.0467,272.0671,0.00016164,2.287e-05,0.0,0 STARLINK-3740,1 52265U 22041E   24218.24920525  .00002287  00000-0  16164-3 0  9995,2 52265  53.2155 199.3096 0001278  88.0467 272.0671 15.08854538127801,6917.836,95.437,540.585,538.817,0.0
52265.0,STARLINK-3740,PAYLOAD,2024-08-05 15:31:11,15.08834658,0.0001615,53.2146,197.5251,78.3835,281.7339,1.0143e-05,-1.27e-06,0.0,0 STARLINK-3740,1 52265U 22041E   24218.64665866 -.00000127  00000-0  10143-4 0  9997,2 52265  53.2146 197.5251 0001615  78.3835 281.7339 15.08834658127865,6917.897,95.438,540.879,538.644,0.0
52265.0,STARLINK-3740,PAYLOAD,2024-08-06 04:14:18,15.08810362,0.0001475,53.215,195.1467,80.9081,279.2078,-0.00029095,-4.912e-05,0.0,0 STARLINK-3740,1 52265U 22041E   24219.17659765 -.00004912  00000-0 -29095-3 0  9999,2 52265  53.2150 195.1467 0001475  80.9081 279.2078 15.08810362127946,6917.971,95.439,540.856,538.816,0.0
52265.0,STARLINK-3740,PAYLOAD,2024-08-06 05:49:40,15.08810708,0.000148,53.2149,194.8494,78.2708,281.8451,-0.00038001,-6.326e-05,0.0,0 STARLINK-3740,1 52265U 22041E   24219.24283474 -.00006326  00000-0 -38001-3 0  9995,2 52265  53.2149 194.8494 0001480  78.2708 281.8451 15.08810708126736,6917.97,95.439,540.859,538.811,0.0
52265.0,STARLINK-3740,PAYLOAD,2024-08-07 04:05:05,15.08832504,0.000192,53.2151,190.6863,51.5771,308.5393,0.00040849,6.218e-05,0.0,0 STARLINK-3740,1 52265U 22041E   24220.17020036  .00006218  00000-0  40849-3 0  9993,2 52265  53.2151 190.6863 0001920  51.5771 308.5393 15.08832504128097,6917.903,95.438,541.097,538.44,0.0
52265.0,STARLINK-3740,PAYLOAD,2024-08-07 05:40:28,15.08836192,0.0001837,53.2157,190.39,57.3941,302.7228,0.0008389,0.00013087,0.0,0 STARLINK-3740,1 52265U 22041E   24220.23644197  .00013087  00000-0  83890-3 0  9995,2 52265  53.2157 190.3900 0001837  57.3941 302.7228 15.08836192126887,6917.892,95.438,541.028,538.486,0.0
52265.0,STARLINK-3740,PAYLOAD,2024-08-08 05:31:13,15.08883867,0.0001416,53.2153,185.9278,82.3061,277.8092,0.001219,0.00019189,0.0,0 STARLINK-3740,1 52265U 22041E   24221.23002200  .00019189  00000-0  12190-2 0  9992,2 52265  53.2153 185.9278 0001416  82.3061 277.8092 15.08883867127035,6917.746,95.435,540.591,538.632,0.0
52265.0,STARLINK-3740,PAYLOAD,2024-08-08 21:25:04,15.08862739,0.000142,53.2158,182.9544,107.7811,252.3336,0.0004039,6.15e-05,0.0,0 STARLINK-3740,1 52265U 22041E   24221.89241751  .00006150  00000-0  40390-3 0  9998,2 52265  53.2158 182.9544 0001420 107.7811 252.3336 15.08862739128353,6917.811,95.436,540.658,538.694,0.0
